[{"OBJECT_NAME":"KAZEOSAT 1","OBJECT_ID":"2014-024A","EPOCH":"2022-08-17T18:11:14.556768","MEAN_MOTION":14.41982763,"ECCENTRICITY":0.0001119,"INCLINATION":98.4617,"RA_OF_ASC_NODE":304.7334,"ARG_OF_PERICENTER":88.8235,"MEAN_ANOMALY":271.308,"EPHEMERIS_TYPE":0,"CLASSIFICATION_TYPE":"U","NORAD_CAT_ID":39731,"ELEMENT_SET_NO":999,"REV_AT_EPOCH":43692,"BSTAR":4.485e-5,"MEAN_MOTION_DOT":1.03e-6,"MEAN_MOTION_DDOT":0},{"OBJECT_NAME":"ALOS-2","OBJECT_ID":"2014-029A","EPOCH":"2022-08-17T16:19:32.572704","MEAN_MOTION":14.79470166,"ECCENTRICITY":0.0001549,"INCLINATION":97.923,"RA_OF_ASC_NODE":325.9328,"ARG_OF_PERICENTER":89.9969,"MEAN_ANOMALY":270.1418,"EPHEMERIS_TYPE":0,"CLASSIFICATION_TYPE":"U","NORAD_CAT_ID":39766,"ELEMENT_SET_NO":999,"REV_AT_EPOCH":44468,"BSTAR":-1.2665e-5,"MEAN_MOTION_DOT":-1.46e-6,"MEAN_MOTION_DDOT":0},{"OBJECT_NAME":"KAZEOSAT 2","OBJECT_ID":"2014-033A","EPOCH":"2022-08-17T19:31:13.725120","MEAN_MOTION":14.82084325,"ECCENTRICITY":0.0013379,"INCLINATION":97.7152,"RA_OF_ASC_NODE":112.8592,"ARG_OF_PERICENTER":235.7855,"MEAN_ANOMALY":124.2088,"EPHEMERIS_TYPE":0,"CLASSIFICATION_TYPE":"U","NORAD_CAT_ID":40010,"ELEMENT_SET_NO":999,"REV_AT_EPOCH":44153,"BSTAR":4.0598e-5,"MEAN_MOTION_DOT":2.72e-6,"MEAN_MOTION_DDOT":0},{"OBJECT_NAME":"HODOYOSHI-4","OBJECT_ID":"2014-033B","EPOCH":"2022-08-17T20:04:33.706272","MEAN_MOTION":14.81744091,"ECCENTRICITY":0.0025129,"INCLINATION":97.6703,"RA_OF_ASC_NODE":100.5113,"ARG_OF_PERICENTER":235.5204,"MEAN_ANOMALY":124.3631,"EPHEMERIS_TYPE":0,"CLASSIFICATION_TYPE":"U","NORAD_CAT_ID":40011,"ELEMENT_SET_NO":999,"REV_AT_EPOCH":44118,"BSTAR":6.8103e-5,"MEAN_MOTION_DOT":4.88e-6,"MEAN_MOTION_DDOT":0},{"OBJECT_NAME":"DEIMOS-2","OBJECT_ID":"2014-033D","EPOCH":"2022-08-17T19:16:00.094368","MEAN_MOTION":14.85428017,"ECCENTRICITY":5.72e-5,"INCLINATION":97.7531,"RA_OF_ASC_NODE":125.354,"ARG_OF_PERICENTER":52.6199,"MEAN_ANOMALY":307.5073,"EPHEMERIS_TYPE":0,"CLASSIFICATION_TYPE":"U","NORAD_CAT_ID":40013,"ELEMENT_SET_NO":999,"REV_AT_EPOCH":44230,"BSTAR":7.3918e-5,"MEAN_MOTION_DOT":5.85e-6,"MEAN_MOTION_DDOT":0},{"OBJECT_NAME":"HODOYOSHI-3","OBJECT_ID":"2014-033F","EPOCH":"2022-08-17T03:48:59.811840","MEAN_MOTION":14.78964061,"ECCENTRICITY":0.0035197,"INCLINATION":97.6362,"RA_OF_ASC_NODE":80.0929,"ARG_OF_PERICENTER":264.9372,"MEAN_ANOMALY":94.7822,"EPHEMERIS_TYPE":0,"CLASSIFICATION_TYPE":"U","NORAD_CAT_ID":40015,"ELEMENT_SET_NO":999,"REV_AT_EPOCH":44030,"BSTAR":5.3953e-5,"MEAN_MOTION_DOT":3.52e-6,"MEAN_MOTION_DDOT":0},{"OBJECT_NAME":"SPOT 7","OBJECT_ID":"2014-034A","EPOCH":"2022-08-17T19:53:14.872704","MEAN_MOTION":14.58567308,"ECCENTRICITY":0.0001336,"INCLINATION":98.1691,"RA_OF_ASC_NODE":296.2486,"ARG_OF_PERICENTER":95.4515,"MEAN_ANOMALY":264.6835,"EPHEMERIS_TYPE":0,"CLASSIFICATION_TYPE":"U","NORAD_CAT_ID":40053,"ELEMENT_SET_NO":999,"REV_AT_EPOCH":43303,"BSTAR":4.537e-5,"MEAN_MOTION_DOT":1.66e-6,"MEAN_MOTION_DDOT":0},{"OBJECT_NAME":"SKYSAT-B","OBJECT_ID":"2014-037D","EPOCH":"2022-08-17T05:02:37.393728","MEAN_MOTION":14.81780406,"ECCENTRICITY":0.0007506,"INCLINATION":98.4011,"RA_OF_ASC_NODE":100.7018,"ARG_OF_PERICENTER":115.3141,"MEAN_ANOMALY":244.8849,"EPHEMERIS_TYPE":0,"CLASSIFICATION_TYPE":"U","NORAD_CAT_ID":40072,"ELEMENT_SET_NO":999,"REV_AT_EPOCH":43832,"BSTAR":6.7095e-5,"MEAN_MOTION_DOT":4.71e-6,"MEAN_MOTION_DDOT":0},{"OBJECT_NAME":"WORLDVIEW-3 (WV-3)","OBJECT_ID":"2014-048A","EPOCH":"2022-08-17T05:21:12.340800","MEAN_MOTION":14.84937923,"ECCENTRICITY":0.0001715,"INCLINATION":97.8515,"RA_OF_ASC_NODE":303.2771,"ARG_OF_PERICENTER":44.3255,"MEAN_ANOMALY":315.8096,"EPHEMERIS_TYPE":0,"CLASSIFICATION_TYPE":"U","NORAD_CAT_ID":40115,"ELEMENT_SET_NO":999,"REV_AT_EPOCH":43415,"BSTAR":6.6109e-5,"MEAN_MOTION_DOT":5.1e-6,"MEAN_MOTION_DDOT":0},{"OBJECT_NAME":"GAOFEN 2","OBJECT_ID":"2014-049A","EPOCH":"2022-08-17T19:11:45.778560","MEAN_MOTION":14.80696589,"ECCENTRICITY":0.0008309,"INCLINATION":97.7585,"RA_OF_ASC_NODE":296.2677,"ARG_OF_PERICENTER":106.2588,"MEAN_ANOMALY":253.954,"EPHEMERIS_TYPE":0,"CLASSIFICATION_TYPE":"U","NORAD_CAT_ID":40118,"ELEMENT_SET_NO":999,"REV_AT_EPOCH":43217,"BSTAR":7.3538e-5,"MEAN_MOTION_DOT":5.15e-6,"MEAN_MOTION_DDOT":0},{"OBJECT_NAME":"YAOGAN 21","OBJECT_ID":"2014-053A","EPOCH":"2022-08-17T18:20:01.345344","MEAN_MOTION":15.23520754,"ECCENTRICITY":0.0016524,"INCLINATION":97.3468,"RA_OF_ASC_NODE":295.8408,"ARG_OF_PERICENTER":22.7714,"MEAN_ANOMALY":125.1613,"EPHEMERIS_TYPE":0,"CLASSIFICATION_TYPE":"U","NORAD_CAT_ID":40143,"ELEMENT_SET_NO":999,"REV_AT_EPOCH":44188,"BSTAR":0.00017239,"MEAN_MOTION_DOT":4.06e-5,"MEAN_MOTION_DDOT":0},{"OBJECT_NAME":"YAOGAN 22","OBJECT_ID":"2014-063A","EPOCH":"2022-08-17T15:28:58.086336","MEAN_MOTION":13.15442117,"ECCENTRICITY":0.000694,"INCLINATION":100.5754,"RA_OF_ASC_NODE":350.0679,"ARG_OF_PERICENTER":108.3954,"MEAN_ANOMALY":251.7913,"EPHEMERIS_TYPE":0,"CLASSIFICATION_TYPE":"U","NORAD_CAT_ID":40275,"ELEMENT_SET_NO":999,"REV_AT_EPOCH":37579,"BSTAR":0.0001,"MEAN_MOTION_DOT":-8.0e-8,"MEAN_MOTION_DDOT":0},{"OBJECT_NAME":"ASNARO","OBJECT_ID":"2014-070A","EPOCH":"2022-08-17T20:57:01.278144","MEAN_MOTION":15.19583228,"ECCENTRICITY":0.0001152,"INCLINATION":97.466,"RA_OF_ASC_NODE":311.284,"ARG_OF_PERICENTER":130.4589,"MEAN_ANOMALY":336.7327,"EPHEMERIS_TYPE":0,"CLASSIFICATION_TYPE":"U","NORAD_CAT_ID":40298,"ELEMENT_SET_NO":999,"REV_AT_EPOCH":43152,"BSTAR":0.00025206,"MEAN_MOTION_DOT":5.296e-5,"MEAN_MOTION_DDOT":0},{"OBJECT_NAME":"HODOYOSHI-1","OBJECT_ID":"2014-070B","EPOCH":"2022-08-17T20:56:40.045344","MEAN_MOTION":15.27416444,"ECCENTRICITY":0.0010426,"INCLINATION":97.2394,"RA_OF_ASC_NODE":296.1995,"ARG_OF_PERICENTER":281.1072,"MEAN_ANOMALY":199.1096,"EPHEMERIS_TYPE":0,"CLASSIFICATION_TYPE":"U","NORAD_CAT_ID":40299,"ELEMENT_SET_NO":999,"REV_AT_EPOCH":43243,"BSTAR":0.00014085,"MEAN_MOTION_DOT":3.712e-5,"MEAN_MOTION_DDOT":0},{"OBJECT_NAME":"QSAT-EOS","OBJECT_ID":"2014-070D","EPOCH":"2022-08-17T20:40:28.390944","MEAN_MOTION":15.37383648,"ECCENTRICITY":0.0017952,"INCLINATION":97.2043,"RA_OF_ASC_NODE":296.1616,"ARG_OF_PERICENTER":246.2389,"MEAN_ANOMALY":226.88,"EPHEMERIS_TYPE":0,"CLASSIFICATION_TYPE":"U","NORAD_CAT_ID":40301,"ELEMENT_SET_NO":999,"REV_AT_EPOCH":43293,"BSTAR":0.00038144,"MEAN_MOTION_DOT":0.0001398,"MEAN_MOTION_DDOT":0},{"OBJECT_NAME":"YAOGAN 23","OBJECT_ID":"2014-071A","EPOCH":"2022-08-17T21:40:24.839328","MEAN_MOTION":15.22065788,"ECCENTRICITY":0.0001392,"INCLINATION":97.6105,"RA_OF_ASC_NODE":182.0259,"ARG_OF_PERICENTER":87.1763,"MEAN_ANOMALY":349.6476,"EPHEMERIS_TYPE":0,"CLASSIFICATION_TYPE":"U","NORAD_CAT_ID":40305,"ELEMENT_SET_NO":999,"REV_AT_EPOCH":42990,"BSTAR":0.00019974,"MEAN_MOTION_DOT":4.497e-5,"MEAN_MOTION_DDOT":0},{"OBJECT_NAME":"YAOGAN 24","OBJECT_ID":"2014-072A","EPOCH":"2022-08-17T18:53:10.607712","MEAN_MOTION":14.76194945,"ECCENTRICITY":0.0018917,"INCLINATION":97.9825,"RA_OF_ASC_NODE":349.4238,"ARG_OF_PERICENTER":79.1854,"MEAN_ANOMALY":281.1484,"EPHEMERIS_TYPE":0,"CLASSIFICATION_TYPE":"U","NORAD_CAT_ID":40310,"ELEMENT_SET_NO":999,"REV_AT_EPOCH":41728,"BSTAR":6.8885e-5,"MEAN_MOTION_DOT":4.26e-6,"MEAN_MOTION_DDOT":0}]