KAZEOSAT 1              
1 39731U 14024A   22229.75780737  .00000103  00000+0  44850-4 0  9993
2 39731  98.4617 304.7334 0001119  88.8235 271.3080 14.41982763436920
ALOS-2                  
1 39766U 14029A   22229.68023811 -.00000146  00000+0 -12665-4 0  9999
2 39766  97.9230 325.9328 0001549  89.9969 270.1418 14.79470166444688
KAZEOSAT 2              
1 40010U 14033A   22229.81335330  .00000272  00000+0  40598-4 0  9999
2 40010  97.7152 112.8592 0013379 235.7855 124.2088 14.82084325441533
HODOYOSHI-4             
1 40011U 14033B   22229.83650123  .00000488  00000+0  68103-4 0  9993
2 40011  97.6703 100.5113 0025129 235.5204 124.3631 14.81744091441188
DEIMOS-2                
1 40013U 14033D   22229.80277887  .00000585  00000+0  73918-4 0  9992
2 40013  97.7531 125.3540 0000572  52.6199 307.5073 14.85428017442306
HODOYOSHI-3             
1 40015U 14033F   22229.15902560  .00000352  00000+0  53953-4 0  9994
2 40015  97.6362  80.0929 0035197 264.9372  94.7822 14.78964061440300
SPOT 7                  
1 40053U 14034A   22229.82864436  .00000166  00000+0  45370-4 0  9997
2 40053  98.1691 296.2486 0001336  95.4515 264.6835 14.58567308433031
SKYSAT-B                
1 40072U 14037D   22229.21015502  .00000471  00000+0  67095-4 0  9993
2 40072  98.4011 100.7018 0007506 115.3141 244.8849 14.81780406438327
WORLDVIEW-3 (WV-3)      
1 40115U 14048A   22229.22305950  .00000510  00000+0  66109-4 0  9992
2 40115  97.8515 303.2771 0001715  44.3255 315.8096 14.84937923434157
GAOFEN 2                
1 40118U 14049A   22229.79983540  .00000515  00000+0  73538-4 0  9994
2 40118  97.7585 296.2677 0008309 106.2588 253.9540 14.80696589432177
YAOGAN 21               
1 40143U 14053A   22229.76390446  .00004060  00000+0  17239-3 0  9995
2 40143  97.3468 295.8408 0016524  22.7714 125.1613 15.23520754441886
YAOGAN 22               
1 40275U 14063A   22229.64511674 -.00000008  00000+0  10000-3 0  9995
2 40275 100.5754 350.0679 0006940 108.3954 251.7913 13.15442117375799
ASNARO                  
1 40298U 14070A   22229.87293146  .00005296  00000+0  25206-3 0  9991
2 40298  97.4660 311.2840 0001152 130.4589 336.7327 15.19583228431525
HODOYOSHI-1             
1 40299U 14070B   22229.87268571  .00003712  00000+0  14085-3 0  9990
2 40299  97.2394 296.1995 0010426 281.1072 199.1096 15.27416444432434
QSAT-EOS                
1 40301U 14070D   22229.86143971  .00013980  00000+0  38144-3 0  9999
2 40301  97.2043 296.1616 0017952 246.2389 226.8800 15.37383648432939
YAOGAN 23               
1 40305U 14071A   22229.90306527  .00004497  00000+0  19974-3 0  9990
2 40305  97.6105 182.0259 0001392  87.1763 349.6476 15.22065788429903
YAOGAN 24               
1 40310U 14072A   22229.78692833  .00000426  00000+0  68885-4 0  9995
2 40310  97.9825 349.4238 0018917  79.1854 281.1484 14.76194945417283
